{
  "norad_id": 59038,
  "name": "STARLINK-31235",
  "history": [
    {
      "epoch": "2026-03-28T21:05:46.591872Z",
      "apogee_km": 484.00465819386045,
      "perigee_km": 482.10671507288407,
      "latitude_deg": 2.40267159403699e-05,
      "longitude_deg": 132.3975636520359,
      "height_km": 482.63376758498003,
      "semi_major_axis_km": 6861.1926866333715,
      "eccentricity": 0.00013831,
      "inclination_deg": 43.0038,
      "raan_deg": 275.1348,
      "arg_perigee_deg": 282.1067,
      "mean_anomaly_deg": 77.963,
      "mean_motion_rev_day": 15.27577799
    },
    {
      "epoch": "2026-03-29T04:56:33.486432Z",
      "apogee_km": 483.985748181256,
      "perigee_km": 482.1195046028779,
      "latitude_deg": -1.5344932952022515e-05,
      "longitude_deg": 12.533789188491633,
      "height_km": 482.6339956191787,
      "semi_major_axis_km": 6861.189626392067,
      "eccentricity": 0.000136,
      "inclination_deg": 43.003,
      "raan_deg": 273.2887,
      "arg_perigee_deg": 282.1024,
      "mean_anomaly_deg": 77.9675,
      "mean_motion_rev_day": 15.27578821
    },
    {
      "epoch": "2026-03-30T04:28:54.509664Z",
      "apogee_km": 483.8489543628493,
      "perigee_km": 482.2873440708863,
      "latitude_deg": -1.0673086704296226e-05,
      "longitude_deg": 12.938878498940076,
      "height_km": 482.7081980912694,
      "semi_major_axis_km": 6861.2051492168675,
      "eccentricity": 0.0001138,
      "inclination_deg": 42.9994,
      "raan_deg": 267.7481,
      "arg_perigee_deg": 280.0585,
      "mean_anomaly_deg": 80.0138,
      "mean_motion_rev_day": 15.27573637
    }
  ]
}